SL-14 R/B               
1 16792U 86046B   26022.26438225  .00000921  00000+0  10338-3 0  9992
2 16792  82.4835 124.0453 0023692  24.9902 335.2455 14.85538388119511
SL-14 R/B               
1 16882U 86055B   26021.93612235  .00001081  00000+0  12181-3 0  9996
2 16882  82.5213 170.6012 0020149 124.4697 358.0684 14.85583013112426
AJISAI (EGS)            
1 16908U 86061A   26022.32129192 -.00000095  00000+0  18003-4 0  9996
2 16908  50.0067 235.9323 0011273 167.9696   5.4272 12.44515172462227
COSMOS 1812             
1 17295U 87003A   26022.06128060  .00194193  00000+0  75356-3 0  9992
2 17295  82.4816 248.0412 0001558  36.5256 323.6121 15.86662608137021
SL-14 R/B               
1 17567U 87024B   26022.31468066  .00000989  00000+0  10989-3 0  9998
2 17567  82.5302 136.3409 0019498  57.1378 303.1712 14.86079183 81245
COSMOS 1833             
1 17589U 87027A   26022.20995922  .00000273  00000+0  17135-3 0  9995
2 17589  70.9193  63.7079 0024416 276.2073  83.6266 14.13049025  3752
SL-16 R/B               
1 17590U 87027B   26022.24762230 -.00000095  00000+0 -23393-4 0  9993
2 17590  71.0033  14.3574 0006129 215.3309 144.7409 14.17159516  8763
SL-14 R/B               
1 17912U 87038B   26022.28574315  .00001013  00000+0  11490-3 0  9995
2 17912  82.5033 340.5086 0018300 322.1490  37.8438 14.85312400 72349
COSMOS 1844             
1 17973U 87041A   26022.29415182 -.00000183  00000+0 -69992-4 0  9993
2 17973  70.8993 132.0376 0028322  92.3225 268.1140 14.14535536997023
SL-14 R/B               
1 18153U 87055B   26022.27065229  .00000809  00000+0  90459-4 0  9995
2 18153  82.4977  32.7812 0021075 162.9029 197.2902 14.85568083 63045
COSMOS 1867             
1 18187U 87060A   26022.19279385  .00000035  00000+0  50775-4 0  9997
2 18187  65.0104  76.9184 0013940 275.0253  84.9240 14.31494271 13286
SL-14 R/B               
1 18749U 88001B   26022.06078395  .00000851  00000+0  95640-4 0  9997
2 18749  82.5107 239.2226 0018996  36.5007 323.7499 14.85470678 35100
