CCSDS_OMM_VERS = 2.0
CREATION_DATE  = 
ORIGINATOR     = 

OBJECT_NAME    = SL-14 R/B
OBJECT_ID      = 1986-046B
CENTER_NAME    = EARTH
REF_FRAME      = TEME
TIME_SYSTEM    = UTC
MEAN_ELEMENT_THEORY = SGP/SGP4

EPOCH          = 2026-01-22T06:20:42.626400
MEAN_MOTION    = 14.85538388
ECCENTRICITY   = .00236924
INCLINATION    = 82.4835
RA_OF_ASC_NODE = 124.0453
ARG_OF_PERICENTER = 24.9902
MEAN_ANOMALY   = 335.2455

EPHEMERIS_TYPE = 0
CLASSIFICATION_TYPE = U
NORAD_CAT_ID   = 16792
ELEMENT_SET_NO = 999
REV_AT_EPOCH   = 11951
BSTAR          = .10337628E-3
MEAN_MOTION_DOT = .921E-5
MEAN_MOTION_DDOT = 0

CCSDS_OMM_VERS = 2.0
CREATION_DATE  = 
ORIGINATOR     = 

OBJECT_NAME    = SL-14 R/B
OBJECT_ID      = 1986-055B
CENTER_NAME    = EARTH
REF_FRAME      = TEME
TIME_SYSTEM    = UTC
MEAN_ELEMENT_THEORY = SGP/SGP4

EPOCH          = 2026-01-21T22:28:00.971040
MEAN_MOTION    = 14.85583013
ECCENTRICITY   = .00201496
INCLINATION    = 82.5213
RA_OF_ASC_NODE = 170.6012
ARG_OF_PERICENTER = 124.4697
MEAN_ANOMALY   = 358.0684

EPHEMERIS_TYPE = 0
CLASSIFICATION_TYPE = U
NORAD_CAT_ID   = 16882
ELEMENT_SET_NO = 999
REV_AT_EPOCH   = 11242
BSTAR          = .1218112E-3
MEAN_MOTION_DOT = .1081E-4
MEAN_MOTION_DDOT = 0

CCSDS_OMM_VERS = 2.0
CREATION_DATE  = 
ORIGINATOR     = 

OBJECT_NAME    = AJISAI (EGS)
OBJECT_ID      = 1986-061A
CENTER_NAME    = EARTH
REF_FRAME      = TEME
TIME_SYSTEM    = UTC
MEAN_ELEMENT_THEORY = SGP/SGP4

EPOCH          = 2026-01-22T07:42:39.621888
MEAN_MOTION    = 12.44515172
ECCENTRICITY   = .00112739
INCLINATION    = 50.0067
RA_OF_ASC_NODE = 235.9323
ARG_OF_PERICENTER = 167.9696
MEAN_ANOMALY   = 5.4272

EPHEMERIS_TYPE = 0
CLASSIFICATION_TYPE = U
NORAD_CAT_ID   = 16908
ELEMENT_SET_NO = 999
REV_AT_EPOCH   = 46222
BSTAR          = .18002696E-4
MEAN_MOTION_DOT = -.95E-6
MEAN_MOTION_DDOT = 0

CCSDS_OMM_VERS = 2.0
CREATION_DATE  = 
ORIGINATOR     = 

OBJECT_NAME    = COSMOS 1812
OBJECT_ID      = 1987-003A
CENTER_NAME    = EARTH
REF_FRAME      = TEME
TIME_SYSTEM    = UTC
MEAN_ELEMENT_THEORY = SGP/SGP4

EPOCH          = 2026-01-22T01:28:14.643840
MEAN_MOTION    = 15.86662608
ECCENTRICITY   = .00015589
INCLINATION    = 82.4816
RA_OF_ASC_NODE = 248.0412
ARG_OF_PERICENTER = 36.5256
MEAN_ANOMALY   = 323.6121

EPHEMERIS_TYPE = 0
CLASSIFICATION_TYPE = U
NORAD_CAT_ID   = 17295
ELEMENT_SET_NO = 999
REV_AT_EPOCH   = 13702
BSTAR          = .75356124E-3
MEAN_MOTION_DOT = .194193E-2
MEAN_MOTION_DDOT = 0

CCSDS_OMM_VERS = 2.0
CREATION_DATE  = 
ORIGINATOR     = 

OBJECT_NAME    = SL-14 R/B
OBJECT_ID      = 1987-024B
CENTER_NAME    = EARTH
REF_FRAME      = TEME
TIME_SYSTEM    = UTC
MEAN_ELEMENT_THEORY = SGP/SGP4

EPOCH          = 2026-01-22T07:33:08.409024
MEAN_MOTION    = 14.86079183
ECCENTRICITY   = .00194982
INCLINATION    = 82.5302
RA_OF_ASC_NODE = 136.3409
ARG_OF_PERICENTER = 57.1378
MEAN_ANOMALY   = 303.1712

EPHEMERIS_TYPE = 0
CLASSIFICATION_TYPE = U
NORAD_CAT_ID   = 17567
ELEMENT_SET_NO = 999
REV_AT_EPOCH   = 8124
BSTAR          = .10989164E-3
MEAN_MOTION_DOT = .989E-5
MEAN_MOTION_DDOT = 0

CCSDS_OMM_VERS = 2.0
CREATION_DATE  = 
ORIGINATOR     = 

OBJECT_NAME    = COSMOS 1833
OBJECT_ID      = 1987-027A
CENTER_NAME    = EARTH
REF_FRAME      = TEME
TIME_SYSTEM    = UTC
MEAN_ELEMENT_THEORY = SGP/SGP4

EPOCH          = 2026-01-22T05:02:20.476608
MEAN_MOTION    = 14.13049025
ECCENTRICITY   = .00244168
INCLINATION    = 70.9193
RA_OF_ASC_NODE = 63.7079
ARG_OF_PERICENTER = 276.2073
MEAN_ANOMALY   = 83.6266

EPHEMERIS_TYPE = 0
CLASSIFICATION_TYPE = U
NORAD_CAT_ID   = 17589
ELEMENT_SET_NO = 999
REV_AT_EPOCH   = 375
BSTAR          = .17135023E-3
MEAN_MOTION_DOT = .273E-5
MEAN_MOTION_DDOT = 0

CCSDS_OMM_VERS = 2.0
CREATION_DATE  = 
ORIGINATOR     = 

OBJECT_NAME    = SL-16 R/B
OBJECT_ID      = 1987-027B
CENTER_NAME    = EARTH
REF_FRAME      = TEME
TIME_SYSTEM    = UTC
MEAN_ELEMENT_THEORY = SGP/SGP4

EPOCH          = 2026-01-22T05:56:34.566720
MEAN_MOTION    = 14.17159516
ECCENTRICITY   = .0006129
INCLINATION    = 71.0033
RA_OF_ASC_NODE = 14.3574
ARG_OF_PERICENTER = 215.3309
MEAN_ANOMALY   = 144.7409

EPHEMERIS_TYPE = 0
CLASSIFICATION_TYPE = U
NORAD_CAT_ID   = 17590
ELEMENT_SET_NO = 999
REV_AT_EPOCH   = 876
BSTAR          = -.23392699E-4
MEAN_MOTION_DOT = -.95E-6
MEAN_MOTION_DDOT = 0

CCSDS_OMM_VERS = 2.0
CREATION_DATE  = 
ORIGINATOR     = 

OBJECT_NAME    = SL-14 R/B
OBJECT_ID      = 1987-038B
CENTER_NAME    = EARTH
REF_FRAME      = TEME
TIME_SYSTEM    = UTC
MEAN_ELEMENT_THEORY = SGP/SGP4

EPOCH          = 2026-01-22T06:51:28.208160
MEAN_MOTION    = 14.85312400
ECCENTRICITY   = .00183
INCLINATION    = 82.5033
RA_OF_ASC_NODE = 340.5086
ARG_OF_PERICENTER = 322.1490
MEAN_ANOMALY   = 37.8438

EPHEMERIS_TYPE = 0
CLASSIFICATION_TYPE = U
NORAD_CAT_ID   = 17912
ELEMENT_SET_NO = 999
REV_AT_EPOCH   = 7234
BSTAR          = .11490027E-3
MEAN_MOTION_DOT = .1013E-4
MEAN_MOTION_DDOT = 0

CCSDS_OMM_VERS = 2.0
CREATION_DATE  = 
ORIGINATOR     = 

OBJECT_NAME    = COSMOS 1844
OBJECT_ID      = 1987-041A
CENTER_NAME    = EARTH
REF_FRAME      = TEME
TIME_SYSTEM    = UTC
MEAN_ELEMENT_THEORY = SGP/SGP4

EPOCH          = 2026-01-22T07:03:34.717248
MEAN_MOTION    = 14.14535536
ECCENTRICITY   = .00283222
INCLINATION    = 70.8993
RA_OF_ASC_NODE = 132.0376
ARG_OF_PERICENTER = 92.3225
MEAN_ANOMALY   = 268.1140

EPHEMERIS_TYPE = 0
CLASSIFICATION_TYPE = U
NORAD_CAT_ID   = 17973
ELEMENT_SET_NO = 999
REV_AT_EPOCH   = 99702
BSTAR          = -.69991664E-4
MEAN_MOTION_DOT = -.183E-5
MEAN_MOTION_DDOT = 0

CCSDS_OMM_VERS = 2.0
CREATION_DATE  = 
ORIGINATOR     = 

OBJECT_NAME    = SL-14 R/B
OBJECT_ID      = 1987-055B
CENTER_NAME    = EARTH
REF_FRAME      = TEME
TIME_SYSTEM    = UTC
MEAN_ELEMENT_THEORY = SGP/SGP4

EPOCH          = 2026-01-22T06:29:44.357856
MEAN_MOTION    = 14.85568083
ECCENTRICITY   = .00210755
INCLINATION    = 82.4977
RA_OF_ASC_NODE = 32.7812
ARG_OF_PERICENTER = 162.9029
MEAN_ANOMALY   = 197.2902

EPHEMERIS_TYPE = 0
CLASSIFICATION_TYPE = U
NORAD_CAT_ID   = 18153
ELEMENT_SET_NO = 999
REV_AT_EPOCH   = 6304
BSTAR          = .90459498E-4
MEAN_MOTION_DOT = .809E-5
MEAN_MOTION_DDOT = 0

CCSDS_OMM_VERS = 2.0
CREATION_DATE  = 
ORIGINATOR     = 

OBJECT_NAME    = COSMOS 1867
OBJECT_ID      = 1987-060A
CENTER_NAME    = EARTH
REF_FRAME      = TEME
TIME_SYSTEM    = UTC
MEAN_ELEMENT_THEORY = SGP/SGP4

EPOCH          = 2026-01-22T04:37:37.388640
MEAN_MOTION    = 14.31494271
ECCENTRICITY   = .00139407
INCLINATION    = 65.0104
RA_OF_ASC_NODE = 76.9184
ARG_OF_PERICENTER = 275.0253
MEAN_ANOMALY   = 84.9240

EPHEMERIS_TYPE = 0
CLASSIFICATION_TYPE = U
NORAD_CAT_ID   = 18187
ELEMENT_SET_NO = 999
REV_AT_EPOCH   = 1328
BSTAR          = .50774913E-4
MEAN_MOTION_DOT = .35E-6
MEAN_MOTION_DDOT = 0

CCSDS_OMM_VERS = 2.0
CREATION_DATE  = 
ORIGINATOR     = 

OBJECT_NAME    = SL-14 R/B
OBJECT_ID      = 1988-001B
CENTER_NAME    = EARTH
REF_FRAME      = TEME
TIME_SYSTEM    = UTC
MEAN_ELEMENT_THEORY = SGP/SGP4

EPOCH          = 2026-01-22T01:27:31.733280
MEAN_MOTION    = 14.85470678
ECCENTRICITY   = .00189969
INCLINATION    = 82.5107
RA_OF_ASC_NODE = 239.2226
ARG_OF_PERICENTER = 36.5007
MEAN_ANOMALY   = 323.7499

EPHEMERIS_TYPE = 0
CLASSIFICATION_TYPE = U
NORAD_CAT_ID   = 18749
ELEMENT_SET_NO = 999
REV_AT_EPOCH   = 3510
BSTAR          = .95640369E-4
MEAN_MOTION_DOT = .851E-5
MEAN_MOTION_DDOT = 0

